[{"OBJECT_NAME":"OBJECT K","OBJECT_ID":"2024-092K","EPOCH":"2026-03-09T22:27:09.905184","MEAN_MOTION":15.32834875,"ECCENTRICITY":0.00087198,"INCLINATION":97.6413,"RA_OF_ASC_NODE":198.1023,"ARG_OF_PERICENTER":142.4952,"MEAN_ANOMALY":217.69,"EPHEMERIS_TYPE":0,"CLASSIFICATION_TYPE":"U","NORAD_CAT_ID":59809,"ELEMENT_SET_NO":999,"REV_AT_EPOCH":10001,"BSTAR":0.0007267688,"MEAN_MOTION_DOT":0.00023035,"MEAN_MOTION_DDOT":0},{"OBJECT_NAME":"STARLINK-36043","OBJECT_ID":"2025-283Z","EPOCH":"2026-03-09T07:10:05.878560","MEAN_MOTION":15.30191817,"ECCENTRICITY":0.00011383,"INCLINATION":53.1604,"RA_OF_ASC_NODE":26.0249,"ARG_OF_PERICENTER":71.091,"MEAN_ANOMALY":289.0214,"EPHEMERIS_TYPE":0,"CLASSIFICATION_TYPE":"U","NORAD_CAT_ID":66901,"ELEMENT_SET_NO":999,"REV_AT_EPOCH":1578,"BSTAR":0.00094930961,"MEAN_MOTION_DOT":0.00027855,"MEAN_MOTION_DDOT":0}]
